{
  "norad_id": 67208,
  "name": "STARLINK-36265",
  "history": [
    {
      "epoch": "2026-03-28T12:43:58.711296Z",
      "apogee_km": 574.6647784757588,
      "perigee_km": 569.378209918732,
      "latitude_deg": 5.1664994508791744e-05,
      "longitude_deg": 110.14242780167521,
      "height_km": 574.5335443913035,
      "semi_major_axis_km": 6950.158494197245,
      "eccentricity": 0.00038032,
      "inclination_deg": 70.0012,
      "raan_deg": 127.0867,
      "arg_perigee_deg": 268.1845,
      "mean_anomaly_deg": 91.8879,
      "mean_motion_rev_day": 14.98341123
    },
    {
      "epoch": "2026-03-29T04:45:19.210464Z",
      "apogee_km": 574.7457728293421,
      "perigee_km": 569.3037961520859,
      "latitude_deg": -3.798415429098316e-05,
      "longitude_deg": -132.53483291002271,
      "height_km": 574.4547807703126,
      "semi_major_axis_km": 6950.161784490713,
      "eccentricity": 0.0003915,
      "inclination_deg": 70.0008,
      "raan_deg": 125.4029,
      "arg_perigee_deg": 269.9658,
      "mean_anomaly_deg": 90.1052,
      "mean_motion_rev_day": 14.98340059
    },
    {
      "epoch": "2026-03-30T04:47:20.153184Z",
      "apogee_km": 574.6079748021839,
      "perigee_km": 569.4631790538397,
      "latitude_deg": 4.15687866794482e-06,
      "longitude_deg": -136.55046970079098,
      "height_km": 574.4179278737528,
      "semi_major_axis_km": 6950.172576928012,
      "eccentricity": 0.00037012,
      "inclination_deg": 70.0008,
      "raan_deg": 122.8782,
      "arg_perigee_deg": 271.0206,
      "mean_anomaly_deg": 89.0529,
      "mean_motion_rev_day": 14.98336569
    },
    {
      "epoch": "2026-03-30T11:11:52.531008Z",
      "apogee_km": 574.7049426931289,
      "perigee_km": 569.4001410234105,
      "latitude_deg": 2.769136913419888e-05,
      "longitude_deg": 126.37822350215345,
      "height_km": 574.4800516867316,
      "semi_major_axis_km": 6950.18954185827,
      "eccentricity": 0.00038163,
      "inclination_deg": 70.0009,
      "raan_deg": 122.205,
      "arg_perigee_deg": 270.0166,
      "mean_anomaly_deg": 90.0556,
      "mean_motion_rev_day": 14.98331083
    },
    {
      "epoch": "2026-03-30T19:12:32.818176Z",
      "apogee_km": 574.687180595628,
      "perigee_km": 569.3882283974262,
      "latitude_deg": -1.872192168515614e-05,
      "longitude_deg": 5.0398359692337875,
      "height_km": 574.4789790231794,
      "semi_major_axis_km": 6950.174704496527,
      "eccentricity": 0.00038121,
      "inclination_deg": 70.0007,
      "raan_deg": 121.3635,
      "arg_perigee_deg": 269.7188,
      "mean_anomaly_deg": 90.3534,
      "mean_motion_rev_day": 14.98335881
    },
    {
      "epoch": "2026-03-31T08:01:37.249824Z",
      "apogee_km": 574.7377638091593,
      "perigee_km": 569.3333096446004,
      "latitude_deg": -5.160286160419246e-05,
      "longitude_deg": 170.89834721494051,
      "height_km": 574.4177734874831,
      "semi_major_axis_km": 6950.172536726879,
      "eccentricity": 0.0003888,
      "inclination_deg": 70.0005,
      "raan_deg": 120.0169,
      "arg_perigee_deg": 270.9771,
      "mean_anomaly_deg": 89.0942,
      "mean_motion_rev_day": 14.98336582
    },
    {
      "epoch": "2026-04-01T19:16:34.809024Z",
      "apogee_km": 574.84071120095,
      "perigee_km": 569.248595042849,
      "latitude_deg": -5.655657562827452e-06,
      "longitude_deg": -2.9929024438119196,
      "height_km": 574.5092654633742,
      "semi_major_axis_km": 6950.181653121899,
      "eccentricity": 0.0004023,
      "inclination_deg": 69.9996,
      "raan_deg": 116.3131,
      "arg_perigee_deg": 269.2574,
      "mean_anomaly_deg": 90.8124,
      "mean_motion_rev_day": 14.98333634
    },
    {
      "epoch": "2026-04-02T19:18:35.556480Z",
      "apogee_km": 574.7711549525593,
      "perigee_km": 569.2580167086153,
      "latitude_deg": 3.329105493822867e-05,
      "longitude_deg": -7.008524396132933,
      "height_km": 574.5023369354088,
      "semi_major_axis_km": 6950.151585830587,
      "eccentricity": 0.00039662,
      "inclination_deg": 69.9999,
      "raan_deg": 113.7876,
      "arg_perigee_deg": 268.7654,
      "mean_anomaly_deg": 91.3051,
      "mean_motion_rev_day": 14.98343357
    },
    {
      "epoch": "2026-04-03T11:19:55.885440Z",
      "apogee_km": 574.7765040410768,
      "perigee_km": 569.2472436030203,
      "latitude_deg": 6.549713482194839e-05,
      "longitude_deg": 110.31557032472527,
      "height_km": 574.4963113169891,
      "semi_major_axis_km": 6950.148873822049,
      "eccentricity": 0.00039778,
      "inclination_deg": 70.0,
      "raan_deg": 112.1044,
      "arg_perigee_deg": 268.838,
      "mean_anomaly_deg": 91.2324,
      "mean_motion_rev_day": 14.98344234
    },
    {
      "epoch": "2026-04-04T11:21:56.877408Z",
      "apogee_km": 574.9438745892676,
      "perigee_km": 569.1367234488453,
      "latitude_deg": 4.61990799006794e-05,
      "longitude_deg": 106.29880440582963,
      "height_km": 574.5545459688672,
      "semi_major_axis_km": 6950.177299019056,
      "eccentricity": 0.00041777,
      "inclination_deg": 69.9992,
      "raan_deg": 109.5788,
      "arg_perigee_deg": 268.3073,
      "mean_anomaly_deg": 91.7608,
      "mean_motion_rev_day": 14.98335042
    },
    {
      "epoch": "2026-04-05T11:23:58.335936Z",
      "apogee_km": 574.7682429330625,
      "perigee_km": 569.3648766775277,
      "latitude_deg": 3.682362724058093e-05,
      "longitude_deg": 102.28099189336577,
      "height_km": 574.5252996669219,
      "semi_major_axis_km": 6950.203559805295,
      "eccentricity": 0.00038872,
      "inclination_deg": 70.0002,
      "raan_deg": 107.0541,
      "arg_perigee_deg": 269.3542,
      "mean_anomaly_deg": 90.7172,
      "mean_motion_rev_day": 14.9832655
    },
    {
      "epoch": "2026-04-05T17:48:30.584160Z",
      "apogee_km": 574.7059107165414,
      "perigee_km": 569.3904091062413,
      "latitude_deg": 1.3548508256917328e-05,
      "longitude_deg": 5.210608844105263,
      "height_km": 574.5066989996341,
      "semi_major_axis_km": 6950.185159911392,
      "eccentricity": 0.0003824,
      "inclination_deg": 70.0003,
      "raan_deg": 106.3813,
      "arg_perigee_deg": 269.347,
      "mean_anomaly_deg": 90.7251,
      "mean_motion_rev_day": 14.983325
    },
    {
      "epoch": "2026-04-06T05:01:27.094368Z",
      "apogee_km": 574.7671543665501,
      "perigee_km": 569.3232156646718,
      "latitude_deg": -2.4117731051579647e-05,
      "longitude_deg": -164.66397729179118,
      "height_km": 574.4961758645879,
      "semi_major_axis_km": 6950.182185015611,
      "eccentricity": 0.00039164,
      "inclination_deg": 70.0004,
      "raan_deg": 105.2028,
      "arg_perigee_deg": 269.5232,
      "mean_anomaly_deg": 90.5478,
      "mean_motion_rev_day": 14.98333462
    },
    {
      "epoch": "2026-04-07T09:51:51.944832Z",
      "apogee_km": 574.7941553977416,
      "perigee_km": 569.2515419216325,
      "latitude_deg": 8.291305878015882e-05,
      "longitude_deg": 118.51808826832561,
      "height_km": 574.4753457108947,
      "semi_major_axis_km": 6950.159848659687,
      "eccentricity": 0.00039874,
      "inclination_deg": 70.0002,
      "raan_deg": 102.1728,
      "arg_perigee_deg": 269.5015,
      "mean_anomaly_deg": 90.5688,
      "mean_motion_rev_day": 14.98340685
    },
    {
      "epoch": "2026-04-08T11:30:00.973152Z",
      "apogee_km": 574.7718735875042,
      "perigee_km": 569.3093120066696,
      "latitude_deg": -6.750065522914561e-05,
      "longitude_deg": 90.23488602790212,
      "height_km": 574.4870818229205,
      "semi_major_axis_km": 6950.177592797087,
      "eccentricity": 0.00039298,
      "inclination_deg": 70.0004,
      "raan_deg": 99.4801,
      "arg_perigee_deg": 269.6196,
      "mean_anomaly_deg": 90.4512,
      "mean_motion_rev_day": 14.98334947
    },
    {
      "epoch": "2026-04-09T09:55:53.999616Z",
      "apogee_km": 574.4606914744509,
      "perigee_km": 569.6360118070497,
      "latitude_deg": -1.393784981820049e-06,
      "longitude_deg": 110.48623883571565,
      "height_km": 574.1440899027222,
      "semi_major_axis_km": 6950.18535164075,
      "eccentricity": 0.00034709,
      "inclination_deg": 70.0025,
      "raan_deg": 97.1236,
      "arg_perigee_deg": 277.9169,
      "mean_anomaly_deg": 82.1596,
      "mean_motion_rev_day": 14.98332438
    },
    {
      "epoch": "2026-04-10T09:57:54.764352Z",
      "apogee_km": 574.4379537184996,
      "perigee_km": 569.6228777328852,
      "latitude_deg": -2.200238171562185e-05,
      "longitude_deg": 106.47081962893444,
      "height_km": 574.0687653274658,
      "semi_major_axis_km": 6950.167415725692,
      "eccentricity": 0.0003464,
      "inclination_deg": 70.002,
      "raan_deg": 94.5984,
      "arg_perigee_deg": 279.3129,
      "mean_anomaly_deg": 80.7638,
      "mean_motion_rev_day": 14.98338238
    }
  ]
}